#aV2010  2 25  0  0   .00000000      96 DD+AD WGS84 FIT  NGA
## 1572 345600.00000000   900.00000000 55252  .0000000000000
+   32     1  2  3  4  5  6  7  8  9 10 11 12 13 14 15 16 17
+         18 19 20 21 22 23 24 25 26 27 28 29 30 31 32  0  0
+          0  0  0  0  0  0  0  0  0  0  0  0  0  0  0  0  0
+          0  0  0  0  0  0  0  0  0  0  0  0  0  0  0  0  0
+          0  0  0  0  0  0  0  0  0  0  0  0  0  0  0  0  0
++         0  0  0  0  0  0  0  0  0  0  0  0  0  0  0  0  0
++         0  0  0  0  0  0  0  0  0  0  0  0  0  0  0  0  0
++         0  0  0  0  0  0  0  0  0  0  0  0  0  0  0  0  0
++         0  0  0  0  0  0  0  0  0  0  0  0  0  0  0  0  0
++         0  0  0  0  0  0  0  0  0  0  0  0  0  0  0  0  0
%c cc cc ccc ccc cccc cccc cccc cccc ccccc ccccc ccccc ccccc
%c cc cc ccc ccc cccc cccc cccc cccc ccccc ccccc ccccc ccccc
%f  0.0000000  0.000000000  0.00000000000  0.000000000000000
%f  0.0000000  0.000000000  0.00000000000  0.000000000000000
%i    0    0    0    0      0      0      0      0         0
%i    0    0    0    0      0      0      0      0         0
/*      NGA, ST. LOUIS,MO.                                  
/*   EPHEMERIS COMPUTED FROM  3 DAYS OF DATA                
/* CCCCCCCCCCCCCCCCCCCCCCCCCCCCCCCCCCCCCCCCCCCCCCCCCCCCCCCCC
/* CCCCCCCCCCCCCCCCCCCCCCCCCCCCCCCCCCCCCCCCCCCCCCCCCCCCCCCCC
*  2010  2 25 12 45   .00000000                                                 
P  1 -15273.952467  11244.578251  18444.803343    -92.583396                    
V  1   3054.377724 -23518.549558  16899.328033      -.039656                    
P  2 -10602.648950 -21107.555485  12525.062822    230.411533                    
V  2  13690.468900   8401.391612  25196.468579       .039971                    
P  3   5667.334450  15105.572989 -21440.773574    520.554472                    
V  3 -24140.334434  11068.001578   1789.038607       .049585                    
P  4   3938.728770 -16359.859632  20302.066044     23.374000                    
V  4  20531.333700  16524.035231   9616.010516       .089558                    
P  5  -3421.897310 -23715.625953 -11386.208551     -6.244184                    
V  5   5281.594817 -13693.040831  27066.840659       .020141                    
P  6    653.574235  16242.825884 -20806.861930    698.615767                    
V  6 -25395.901050   9072.751022   6352.567129      -.060042                    
P  7  19747.916475   1215.362271 -17802.859823      2.385913                    
V  7  15932.510845  15955.929031  18616.872974      -.005083                    
P  8  11464.946996  -9059.602699 -22214.855660      3.643301                    
V  8  19812.707431  19866.162076   1619.549622       .003458                    
P  9 -20752.811635 -16541.801160    791.079548    108.149609                    
V  9     31.298117  -2863.558088 -32120.619031       .023214                    
P 10   1943.760829 -25783.866631  -5362.274743    -36.385702                    
V 10   4599.365222  -5782.130744  30845.371955      -.010083                    
P 11  24487.900709  10192.488136   3236.342363    -47.350408                    
V 11   1664.924425   6229.952185 -29484.999571      -.021266                    
P 12 -12899.778303  -9500.418718  21266.785717   -145.725619                    
V 12   6084.803642 -26120.789509  -7859.044114       .047087                    
P 13  25932.610022  -5058.128982   2648.412476    306.330095                    
V 13  -2952.145797   2587.711636  32230.647738      -.001578                    
P 14 -17743.144857  14404.743057  13565.898899     15.709858                    
V 14 -16783.741215   3136.572456 -25654.930295       .042025                    
P 15 -13906.572518 -10237.392009 -20189.795027   -303.561563                    
V 15  23851.497871  -9550.886210 -11462.596602       .033412                    
P 16  -2019.233447  25743.034911  -5538.198843    -45.145664                    
V 16  -4173.979843   6367.341741  31104.966431      -.040002                    
P 17  16636.266873 -15327.264145  13836.838943    132.568113                    
V 17  17395.160988  -3014.373699 -24619.698063       .029302                    
P 18 -15963.692476  10455.682324 -18063.328449     51.319053                    
V 18   3178.116645 -23550.033955 -16582.043733       .025831                    
P 19  14919.428021  10335.396853 -19454.472461    -17.856134                    
V 19 -23661.649185   7160.719563 -14026.586515      -.023633                    
P 20  14887.591598   5264.489756  21222.348424     60.614435                    
V 20  -4964.123093  26901.824439  -3113.616007      -.007174                    
P 21 -17950.606886   2969.231941 -19235.836645    -42.936628                    
V 21 -17634.446102 -17770.977091  12871.723162      -.025097                    
P 22 -12185.896182  21492.584819  -9481.945261    178.244485                    
V 22   -442.315391 -12767.222609 -27985.348456      -.009609                    
P 23  23517.188218   1360.930221  12538.249325    378.966054                    
V 23 -14460.814640   6724.760804  26037.358729      -.010269                    
P 24 -20261.298249  -3090.881742 -16688.324151    265.494023                    
V 24 -13830.090036 -16563.902002  20001.254955       .033226                    
P 25 -14185.801420  -7700.153863  20779.834607     52.033517                    
V 25   3475.001614 -26956.960590  -7409.786270       .773793                    
P 26 -25715.778425   7404.808700    793.925210    -22.067415                    
V 26  -1975.748122  -1014.097601 -32111.787638      -.038195                    
P 27 -20884.389198 -16496.142424     -6.419312    129.186849                    
V 27   2030.114344  -1208.229080 -32046.268499       .032977                    
P 28  12818.954686 -19753.183349 -11513.660031    -21.514484                    
V 28  -1123.486043  15608.360244 -27229.842282       .006123                    
P 29 -25688.284301   3617.577122   5707.237981    100.727548                    
V 29   6035.678827  -4689.657784  30668.636809       .028878                    
P 30 -15490.311601   2867.449280  20990.558659    219.505304                    
V 30   3621.520854 -27358.624954   6350.341451       .035246                    
P 31  -1153.004551  17305.531569  20281.075328    -49.973332                    
V 31 -19579.738055 -16023.187466  12858.937798       .017039                    
P 32   9577.160105  15854.279572  19505.481695     87.220695                    
V 32  -7752.128460  22648.115747 -14553.797617      -.084734                    
EOF
